0 SKYNET 4C
1 20776U 90079A   13282.19730698 -.00000037  00000-0  10000-3 0  7258
2 20776 012.6436 030.4601 0002697 164.0488 253.2106 01.00271324 84488
0 SKYNET 4C
1 20776U 90079A   13284.04137976 -.00000041  00000-0  10000-3 0  7260
2 20776 012.6461 030.4399 0003038 156.0702 206.8910 01.00271544 84504
0 SKYNET 4C
1 20776U 90079A   13284.29055756 -.00000042  00000-0  10000-3 0  7274
2 20776 012.6469 030.4372 0002339 180.8253 272.0723 01.00271631 84506
0 SKYNET 4C
1 20776U 90079A   13285.82848743 -.00000044  00000-0  10000-3 0  7283
2 20776 012.6488 030.4216 0003366 166.0765 122.0129 01.00271664 84510
0 SKYNET 4C
1 20776U 90079A   13286.84403006 -.00000045  00000-0  10000-3 0  7297
2 20776 012.6502 030.4107 0003470 167.5418 127.1515 01.00271794 84523
0 SKYNET 4C
1 20776U 90079A   13289.24304387 -.00000046  00000-0  10000-3 0  7309
2 20776 012.6536 030.3844 0003517 169.8986 270.8242 01.00272127 84551
0 SKYNET 4C
1 20776U 90079A   13290.30681507 -.00000045  00000-0  10000-3 0  7310
2 20776 012.6550 030.3729 0003526 171.3017 293.4360 01.00272256 84568
0 SKYNET 4C
1 20776U 90079A   13293.16744470 -.00000042  00000-0  10000-3 0  7324
2 20776 012.6592 030.3416 0003763 186.1827 231.2480 01.00273907 84593
0 SKYNET 4C
1 20776U 90079A   13295.18380852 -.00000039  00000-0  10000-3 0  7335
2 20776 012.6618 030.3196 0003809 184.1111 241.2172 01.00273353 84619
